#dP2024  9 19 18  0  0.00000000     576 ORBIT IGS20 HLM IGS 
## 2332 410400.00000000   300.00000000 60572 0.7500000000000
+   81   E02E03E04E05E06E07E08E09E10E11E12E13E14E15E18E19E21
+        E24E25E26E27E29E30E31E33E34E36G01G02G03G04G05G06G07
+        G08G09G10G11G12G13G14G15G16G17G18G19G20G21G22G23G24
+        G25G26G27G28G29G30G31G32R01R02R03R04R05R07R08R09R11
+        R12R14R15R16R17R18R19R20R21R22R24R25R26  0  0  0  0
++         4  4  4  4  3  5  4  4  4  5  5  6  4  4  4  4  4
++         4  4  4  4  5  4  4  4  5  5  6  3  3  2  3  3  3
++         3  2  3  3  3  3  3  3  3  7  3  3  3  4  3  3  3
++         3  3  3  4  3  4  3  3  4  3  4  4  4  4  4  4  4
++         4  3  4  4  4  4  4  5  4  3  4  5  0  0  0  0  0
%c M  cc GPS ccc cccc cccc cccc cccc ccccc ccccc ccccc ccccc
%c cc cc ccc ccc cccc cccc cccc cccc ccccc ccccc ccccc ccccc
%f  1.2500000  1.025000000  0.00000000000  0.000000000000000
%f  0.0000000  0.000000000  0.00000000000  0.000000000000000
%i    0    0    0    0      0      0      0      0         0
%i    0    0    0    0      0      0      0      0         0
/* STRICTLY EXPERIMENTAL MULTI-GNSS COMBINATION
/* ULTRA RAPID ORBIT COMBINATION FROM WEIGHTED AVERAGE OF:
/* COD EMR ESA GFZ GRG WHU
/* REFERENCED TO GPS CLOCK AND TO WEIGHTED MEAN POLE:
/* PCV:IGS20_2317 OL/AL:FES2014b NONE     Y  ORB:CMB CLK:COD
*  2024  9 21  0  0  0.00000000
PE02  13927.120264  26031.468775  -2244.204080    160.882102 12  9 14      P   P
PE03   4248.127365  21434.023670 -19972.207153   -141.734912 14 13 12      P   P
PE04 -17383.802708  -2730.195597  23800.746479    -37.986976 15 16 11      P   P
PE05 -11082.359030  27079.068575  -4473.264181   4785.993446 15 13 13      P   P
PE06 -20354.393934   7803.612048  20007.551713    -27.912902 12  3 10      P   P
PE07  20085.031625 -16649.153172 -13997.358636   -143.148085 11 15 13      P   P
PE08  16900.608605   3554.920817 -24047.981218   -338.837245  9 16  9      P   P
PE09 -20022.011507  16600.433744  14112.783429   -597.233521 11 15 14      P   P
PE10 -29540.709836   1417.431282   1003.114260   -658.004040 14 11 14      P   P
PE11 -26279.263231   7818.201135  11149.373482   1587.475872 15 17 16      P   P
PE12 -28131.203055  -4529.330876  -8031.495309  -1218.750085 16 15 15      P   P
PE13  26584.343909  -7481.550356 -10653.275778    -24.983548 17 17 20      P   P
PE14 -12560.554609  20269.600337  -1839.948943 999999.999999 11  8 12      P   P
PE15  27874.804507   4894.704391   8686.613245   -128.356092 11 13 16      P   P
PE18  10753.015992 -29946.787577  -5955.822322 999999.999999 12 10 14      P   P
PE19  -2484.457534 -22622.604876  18927.326404    654.039685 14 12 12      P   P
PE21    822.254757 -23165.550315  18412.801769   -617.978619 12  7 13      P   P
PE24 -15774.128954   6465.180018 -24207.189256   -998.836437 14 15 11      P   P
PE25  -1179.618925  22928.786910 -18676.004345      9.291934 12 15 13      P   P
PE26   9223.551646 -15505.708774 -23462.711062   -263.374837 15 12 14      P   P
PE27  15647.874246  -6597.212093  24250.981334   -457.702853 13 16 13      P   P
PE29  10850.873272 -27103.722447   4838.053899    -31.723579 18 16 17      P   P
PE30  21044.297068  13668.409808  15703.109078   -737.896504 10 14 15      P   P
PE31 -21046.842538 -13644.241308 -15705.163711    -36.564519 11 15 15      P   P
PE33 -12283.859572 -14326.403242 -22794.925318     15.442909 15  6 10      P   P
PE34  12826.546909  14173.596049  22603.482842   -135.501855 16 13 11      P   P
PE36  -9808.887297  15251.657153  23398.677985   -286.155341 18  9 16      P   P
PG01  15652.983295  -3314.815955  20872.915529    192.675625 14 18 17      P   P
PG02  -5788.413802 -13961.856856 -21396.451504   -353.801952 11  7  5      P   P
PG03 -12332.067038 -23157.340122  -4668.010093    544.704239  9  7 11      P   P
PG04  -2942.905920 -20146.512259  16991.945269    447.442734 10  8  7      P   P
PG05    260.579197  19777.817300  17509.816337   -187.260102  9  6  8      P   P
PG06 -25566.173053   5297.756210   5245.478983     16.867824 11 10 12      P   P
PG07 -22033.900514  -7777.373669  13571.754687    -35.527910 11  8  9      P   P
PG08   4837.744102 -24869.823284  -7298.184646    359.307334 10  8 11      P   P
PG09 -11455.295559 -10956.945798  21208.799123    365.119347 11 10  4      P   P
PG10  17589.278603   2439.506113 -19650.143303   -131.918452  9  9  7      P   P
PG11 -15743.301734  12600.779223  17285.213325   -736.750928 13 11 10      P   P
PG12   8220.813423  24135.178978  -7799.502270   -539.535831  9  7  7      P   P
PG13 -13533.407583  22664.288003  -1527.384866    677.552970  8  8  9      P   P
PG14 -19191.142703  -6076.201127 -17394.198825    500.131245 10  9  8      P   P
PG15  -1199.485430  25386.309582  -7934.904229    206.629588 12  2  9      P   P
PG16   5758.075858 -16843.149360  19227.266549   -175.608890 12  9  7      P   P
PG17 -17755.321651   6090.168896 -18440.126664 999999.999999 14 22 16      P   P
PG18  22521.994549   6928.517561  12498.887682   -654.459894 11 11 12      P   P
PG19 -18664.959699  13033.525230 -13471.177656    540.668963  6 12 11      P   P
PG20  -8818.865156  12781.999048  21625.817882    370.436897  8  6  6      P   P
PG21    195.428414 -15155.580829 -21312.888733    101.354156 12 10  7      P   P
PG22 -15638.756682   2147.926002 -20905.310284    -63.820975  9 10  9      P   P
PG23  19706.935993  14240.234655 -10923.279190    324.631649  6  4  8      P   P
PG24   3750.321539  15565.387011 -21645.905302   -486.483769  9  8 10      P   P
PG25  17238.515198  20143.756163   2833.768563    499.628019  8  8  9      P   P
PG26  14582.105085  -6913.995503  20972.382978     74.310796 11 10  8      P   P
PG27  12552.607209 -22941.282872   2764.192377    -33.895147 11  8 14      P   P
PG28  25943.873175  -5017.670505   2691.760834 999999.999999  7 12 13      P   P
PG29   8516.889262  14022.106698  20819.218878   -576.534301  7  8  5      P   P
PG30 -26455.004925   -414.519948   3765.841340   -317.479724 15 13 12      P   P
PG31  20207.390403 -10886.952661  13455.919362   -224.447751 11  9  9      P   P
PG32  17414.927482  -7736.516527 -18201.080795   -595.175654  7 11  8      P   P
PR01 -10961.291735   1188.073979  22995.377910     98.438881  6 13  9      P   P
PR02  -8817.080008  18101.791308  15744.301632    -24.772794  9  7 10      P   P
PR03  -1523.434888  25489.781119   -593.145693    107.956672 13  4 13      P   P
PR04   5969.749835  18783.835319 -16182.200505    255.653746 14 14 15      P   P
PR05  10532.868163   2152.314811 -23128.343639    137.970701 12 14  6      P   P
PR07   1227.132055 -25418.377578   1283.508102     91.281720 13  6 14      P   P
PR08  -6373.820364 -18470.832697  16426.885373     -6.397255 11 11 12      P   P
PR09  11534.465330  -5667.625283  22041.524016    210.274858 13 13  9      P   P
PR11 -17637.832416 -16406.803557   8431.965972     11.324003 12  8 12      P   P
PR12 -21545.046130  -8020.674351 -11012.683526      1.988153 12 14 15      P   P
PR14   4765.128684  14829.235747 -20178.405202     22.853439 11  8  8      P   P
PR15  18490.383580  16226.726895  -6705.826929     75.686455 11 11 16      P   P
PR16  21565.271715   8082.725516  10939.651584     29.290095 13 12 14      P   P
PR17  -7001.731512  13693.464452  20344.895866    123.788488 13 11 10      P   P
PR18   9399.716495   6961.472424  22681.367027    163.040971 12 12  9      P   P
PR19  20621.196297  -1520.924208  14950.616960   -292.076698 17 13 15      P   P
PR20  21774.078939 -11979.967301  -5670.879688   -119.373202 15 13 17      P   P
PR21   7965.803256 -13738.339940 -19970.744153   -136.191130 14 11 11      P   P
PR22 -10571.317561  -6847.976499 -22152.950853     41.941014 14 11 10      P   P
PR24 -20882.346904  13266.156492   6175.757567    -72.846300 11 10 12      P   P
PR25   7122.150930 -13615.035751 -20361.931301    -98.730255 17  8 17      P   P
PR26  -5827.990034 -19659.862820  15198.496509     35.167852               P   P
EOF
